start=new Date('2022-03-13T00:00:00.000Z').valueOf();
sats=[{"SEMIMAJOR_AXIS":"6925.333","FILE":"3356931","OBJECT_NAME":"STARLINK-2682","MEAN_MOTION_DOT":"-0.00001484","OBJECT_ID":"2021-040N","ARG_OF_PERICENTER":"64.1916","PERIOD":"95.592","ELEMENT_SET_NO":"999","REF_FRAME":"TEME","NORAD_CAT_ID":"48440","EPOCH":"2022-03-12T20:10:49.905696","ECCENTRICITY":"0.00016720","CENTER_NAME":"EARTH","BSTAR":"-0.00008070200000","SITE":"AFETR","REV_AT_EPOCH":"4689","MEAN_MOTION_DDOT":"0.0000000000000","APOAPSIS":"548.356","OBJECT_TYPE":"PAYLOAD","COUNTRY_CODE":"US","INCLINATION":"53.0536","TLE_LINE1":"1 48440U 21040N   22071.84085539 -.00001484  00000-0 -80702-4 0  9991","TIME_SYSTEM":"UTC","DECAY_DATE":null,"RA_OF_ASC_NODE":"246.1657","RCS_SIZE":"LARGE","LAUNCH_DATE":"2021-05-09","PERIAPSIS":"546.040","TLE_LINE2":"2 48440  53.0536 246.1657 0001672  64.1916 295.9246 15.06405186 46898","CLASSIFICATION_TYPE":"U","MEAN_ANOMALY":"295.9246","MEAN_MOTION":"15.06405186","MEAN_ELEMENT_THEORY":"SGP4","GP_ID":"198605760","EPHEMERIS_TYPE":"0"},{"OBJECT_NAME":"STARLINK-2702","SEMIMAJOR_AXIS":"6925.337","FILE":"3356931","MEAN_MOTION_DOT":"-0.00001027","OBJECT_ID":"2021-040P","ARG_OF_PERICENTER":"65.1659","ELEMENT_SET_NO":"999","REF_FRAME":"TEME","PERIOD":"95.592","EPOCH":"2022-03-12T18:29:58.239744","NORAD_CAT_ID":"48441","ECCENTRICITY":"0.00015580","CENTER_NAME":"EARTH","REV_AT_EPOCH":"4688","SITE":"AFETR","BSTAR":"-0.00005002300000","APOAPSIS":"548.281","MEAN_MOTION_DDOT":"0.0000000000000","TLE_LINE1":"1 48441U 21040P   22071.77081296 -.00001027  00000-0 -50023-4 0  9996","INCLINATION":"53.0549","COUNTRY_CODE":"US","OBJECT_TYPE":"PAYLOAD","DECAY_DATE":null,"TIME_SYSTEM":"UTC","LAUNCH_DATE":"2021-05-09","RCS_SIZE":"LARGE","RA_OF_ASC_NODE":"246.4780","CLASSIFICATION_TYPE":"U","TLE_LINE2":"2 48441  53.0549 246.4780 0001558  65.1659 294.9491 15.06403642 46886","PERIAPSIS":"546.123","MEAN_MOTION":"15.06403642","MEAN_ANOMALY":"294.9491","EPHEMERIS_TYPE":"0","MEAN_ELEMENT_THEORY":"SGP4","GP_ID":"198604508"},{"SEMIMAJOR_AXIS":"6925.344","FILE":"3356931","OBJECT_NAME":"STARLINK-2644","MEAN_MOTION_DOT":"0.00000031","OBJECT_ID":"2021-040Q","ARG_OF_PERICENTER":"75.4054","PERIOD":"95.592","ELEMENT_SET_NO":"999","REF_FRAME":"TEME","NORAD_CAT_ID":"48442","EPOCH":"2022-03-12T21:35:44.600064","ECCENTRICITY":"0.00013470","CENTER_NAME":"EARTH","BSTAR":"0.00002098200000","SITE":"AFETR","REV_AT_EPOCH":"4690","MEAN_MOTION_DDOT":"0.0000000000000","APOAPSIS":"548.141","OBJECT_TYPE":"PAYLOAD","COUNTRY_CODE":"US","INCLINATION":"53.0544","TLE_LINE1":"1 48442U 21040Q   22071.89982176  .00000031  00000-0  20982-4 0  9990","TIME_SYSTEM":"UTC","DECAY_DATE":null,"RA_OF_ASC_NODE":"245.8802","RCS_SIZE":"LARGE","LAUNCH_DATE":"2021-05-09","PERIAPSIS":"546.276","TLE_LINE2":"2 48442  53.0544 245.8802 0001347  75.4054 284.7084 15.06401644 46907","CLASSIFICATION_TYPE":"U","MEAN_ANOMALY":"284.7084","MEAN_MOTION":"15.06401644","GP_ID":"198604758","MEAN_ELEMENT_THEORY":"SGP4","EPHEMERIS_TYPE":"0"},{"EPHEMERIS_TYPE":"0","MEAN_ELEMENT_THEORY":"SGP4","GP_ID":"198605510","MEAN_MOTION":"15.06402004","MEAN_ANOMALY":"287.8118","CLASSIFICATION_TYPE":"U","TLE_LINE2":"2 48443  53.0554 246.2000 0001426  72.3026 287.8118 15.06402004 46898","PERIAPSIS":"546.220","LAUNCH_DATE":"2021-05-09","RCS_SIZE":"LARGE","RA_OF_ASC_NODE":"246.2000","DECAY_DATE":null,"TIME_SYSTEM":"UTC","TLE_LINE1":"1 48443U 21040R   22071.82980014  .00000144  00000-0  28553-4 0  9990","COUNTRY_CODE":"US","INCLINATION":"53.0554","OBJECT_TYPE":"PAYLOAD","APOAPSIS":"548.195","MEAN_MOTION_DDOT":"0.0000000000000","REV_AT_EPOCH":"4689","SITE":"AFETR","BSTAR":"0.00002855300000","ECCENTRICITY":"0.00014260","CENTER_NAME":"EARTH","EPOCH":"2022-03-12T19:54:54.732096","NORAD_CAT_ID":"48443","ELEMENT_SET_NO":"999","REF_FRAME":"TEME","PERIOD":"95.592","OBJECT_ID":"2021-040R","ARG_OF_PERICENTER":"72.3026","MEAN_MOTION_DOT":"0.00000144","OBJECT_NAME":"STARLINK-2663","SEMIMAJOR_AXIS":"6925.342","FILE":"3356931"},{"RCS_SIZE":"LARGE","RA_OF_ASC_NODE":"245.9253","LAUNCH_DATE":"2021-05-09","PERIAPSIS":"546.212","CLASSIFICATION_TYPE":"U","TLE_LINE2":"2 48444  53.0543 245.9253 0001358  69.3325 290.7809 15.06419928 46900","COUNTRY_CODE":"US","INCLINATION":"53.0543","OBJECT_TYPE":"PAYLOAD","TLE_LINE1":"1 48444U 21040S   22071.89244919  .00002459  00000-0  18381-3 0  9993","TIME_SYSTEM":"UTC","DECAY_DATE":null,"MEAN_ELEMENT_THEORY":"SGP4","GP_ID":"198605260","EPHEMERIS_TYPE":"0","MEAN_MOTION":"15.06419928","MEAN_ANOMALY":"290.7809","ARG_OF_PERICENTER":"69.3325","OBJECT_ID":"2021-040S","PERIOD":"95.591","ELEMENT_SET_NO":"999","REF_FRAME":"TEME","SEMIMAJOR_AXIS":"6925.287","FILE":"3356931","OBJECT_NAME":"STARLINK-2645","MEAN_MOTION_DOT":"0.00002459","BSTAR":"0.00018381000000","REV_AT_EPOCH":"4690","SITE":"AFETR","MEAN_MOTION_DDOT":"0.0000000000000","APOAPSIS":"548.093","EPOCH":"2022-03-12T21:25:07.610016","NORAD_CAT_ID":"48444","CENTER_NAME":"EARTH","ECCENTRICITY":"0.00013580"},{"MEAN_MOTION_DOT":"-0.00000372","SEMIMAJOR_AXIS":"6925.349","FILE":"3356931","OBJECT_NAME":"STARLINK-2634","PERIOD":"95.592","REF_FRAME":"TEME","ELEMENT_SET_NO":"999","OBJECT_ID":"2021-040T","ARG_OF_PERICENTER":"73.3405","ECCENTRICITY":"0.00014060","CENTER_NAME":"EARTH","NORAD_CAT_ID":"48445","EPOCH":"2022-03-12T19:44:17.913984","MEAN_MOTION_DDOT":"0.0000000000000","APOAPSIS":"548.188","BSTAR":"-0.00000607550000","SITE":"AFETR","REV_AT_EPOCH":"4689","TIME_SYSTEM":"UTC","DECAY_DATE":null,"OBJECT_TYPE":"PAYLOAD","INCLINATION":"53.0543","COUNTRY_CODE":"US","TLE_LINE1":"1 48445U 21040T   22071.82242956 -.00000372  00000-0 -60755-5 0  9994","PERIAPSIS":"546.241","TLE_LINE2":"2 48445  53.0543 246.2452 0001406  73.3405 286.7738 15.06399741 46898","CLASSIFICATION_TYPE":"U","RA_OF_ASC_NODE":"246.2452","RCS_SIZE":"LARGE","LAUNCH_DATE":"2021-05-09","MEAN_ANOMALY":"286.7738","MEAN_MOTION":"15.06399741","MEAN_ELEMENT_THEORY":"SGP4","GP_ID":"198604008","EPHEMERIS_TYPE":"0"},{"PERIOD":"95.591","ELEMENT_SET_NO":"999","REF_FRAME":"TEME","ARG_OF_PERICENTER":"65.6298","OBJECT_ID":"2021-040U","MEAN_MOTION_DOT":"0.00005350","SEMIMAJOR_AXIS":"6925.277","FILE":"3356931","OBJECT_NAME":"STARLINK-2247","MEAN_MOTION_DDOT":"0.0000000000000","APOAPSIS":"548.106","BSTAR":"0.00037755000000","SITE":"AFETR","REV_AT_EPOCH":"4690","ECCENTRICITY":"0.00013920","CENTER_NAME":"EARTH","NORAD_CAT_ID":"48446","EPOCH":"2022-03-12T21:14:30.414336","PERIAPSIS":"546.178","TLE_LINE2":"2 48446  53.0540 245.9559 0001392  65.6298 294.4836 15.06423440 46909","CLASSIFICATION_TYPE":"U","RA_OF_ASC_NODE":"245.9559","RCS_SIZE":"LARGE","LAUNCH_DATE":"2021-05-09","TIME_SYSTEM":"UTC","DECAY_DATE":null,"OBJECT_TYPE":"PAYLOAD","COUNTRY_CODE":"US","INCLINATION":"53.0540","TLE_LINE1":"1 48446U 21040U   22071.88507424  .00005350  00000-0  37755-3 0  9996","MEAN_ELEMENT_THEORY":"SGP4","GP_ID":"198604258","EPHEMERIS_TYPE":"0","MEAN_ANOMALY":"294.4836","MEAN_MOTION":"15.06423440"},{"BSTAR":"0.00013582000000","SITE":"AFETR","REV_AT_EPOCH":"4688","MEAN_MOTION_DDOT":"0.0000000000000","APOAPSIS":"548.116","NORAD_CAT_ID":"48447","EPOCH":"2022-03-12T17:58:07.206528","CENTER_NAME":"EARTH","ECCENTRICITY":"0.00013610","ARG_OF_PERICENTER":"74.2871","OBJECT_ID":"2021-040V","PERIOD":"95.591","ELEMENT_SET_NO":"999","REF_FRAME":"TEME","SEMIMAJOR_AXIS":"6925.309","FILE":"3356931","OBJECT_NAME":"STARLINK-2269","MEAN_MOTION_DOT":"0.00001743","GP_ID":"198605010","MEAN_ELEMENT_THEORY":"SGP4","EPHEMERIS_TYPE":"0","MEAN_ANOMALY":"285.8267","MEAN_MOTION":"15.06413029","RA_OF_ASC_NODE":"246.5702","RCS_SIZE":"LARGE","LAUNCH_DATE":"2021-05-09","PERIAPSIS":"546.231","TLE_LINE2":"2 48447  53.0545 246.5702 0001361  74.2871 285.8267 15.06413029 46882","CLASSIFICATION_TYPE":"U","OBJECT_TYPE":"PAYLOAD","INCLINATION":"53.0545","COUNTRY_CODE":"US","TLE_LINE1":"1 48447U 21040V   22071.74869452  .00001743  00000-0  13582-3 0  9998","TIME_SYSTEM":"UTC","DECAY_DATE":null},{"MEAN_MOTION_DDOT":"0.0000000000000","APOAPSIS":"548.233","BSTAR":"0.00001328600000","SITE":"AFETR","REV_AT_EPOCH":"4689","ECCENTRICITY":"0.00015100","CENTER_NAME":"EARTH","NORAD_CAT_ID":"48448","EPOCH":"2022-03-12T20:09:26.967744","PERIOD":"95.592","ELEMENT_SET_NO":"999","REF_FRAME":"TEME","ARG_OF_PERICENTER":"72.7572","OBJECT_ID":"2021-040W","MEAN_MOTION_DOT":"-0.00000084","SEMIMAJOR_AXIS":"6925.322","FILE":"3356931","OBJECT_NAME":"STARLINK-2632","GP_ID":"198605761","MEAN_ELEMENT_THEORY":"SGP4","EPHEMERIS_TYPE":"0","MEAN_ANOMALY":"287.3582","MEAN_MOTION":"15.06408621","PERIAPSIS":"546.141","TLE_LINE2":"2 48448  53.0533 246.1647 0001510  72.7572 287.3582 15.06408621 46891","CLASSIFICATION_TYPE":"U","RA_OF_ASC_NODE":"246.1647","RCS_SIZE":"LARGE","LAUNCH_DATE":"2021-05-09","TIME_SYSTEM":"UTC","DECAY_DATE":null,"OBJECT_TYPE":"PAYLOAD","COUNTRY_CODE":"US","INCLINATION":"53.0533","TLE_LINE1":"1 48448U 21040W   22071.83989546 -.00000084  00000-0  13286-4 0  9996"},{"BSTAR":"-0.00026505000000","SITE":"AFETR","REV_AT_EPOCH":"4689","MEAN_MOTION_DDOT":"0.0000000000000","APOAPSIS":"548.363","NORAD_CAT_ID":"48449","EPOCH":"2022-03-12T19:28:22.317024","CENTER_NAME":"EARTH","ECCENTRICITY":"0.00016000","OBJECT_ID":"2021-040X","ARG_OF_PERICENTER":"69.7631","PERIOD":"95.593","ELEMENT_SET_NO":"999","REF_FRAME":"TEME","SEMIMAJOR_AXIS":"6925.390","FILE":"3356931","OBJECT_NAME":"STARLINK-2655","MEAN_MOTION_DOT":"-0.00004226","GP_ID":"198604509","MEAN_ELEMENT_THEORY":"SGP4","EPHEMERIS_TYPE":"0","MEAN_ANOMALY":"290.3530","MEAN_MOTION":"15.06386391","RA_OF_ASC_NODE":"246.2913","RCS_SIZE":"LARGE","LAUNCH_DATE":"2021-05-09","PERIAPSIS":"546.147","TLE_LINE2":"2 48449  53.0525 246.2913 0001600  69.7631 290.3530 15.06386391 46898","CLASSIFICATION_TYPE":"U","OBJECT_TYPE":"PAYLOAD","COUNTRY_CODE":"US","INCLINATION":"53.0525","TLE_LINE1":"1 48449U 21040X   22071.81136941 -.00004226  00000-0 -26505-3 0  9998","TIME_SYSTEM":"UTC","DECAY_DATE":null}];
